STP-S29A OBJECT H       
1 68634U 26074H   26108.53535318  .00008357  00000+0  33759-3 0  9998
2 68634  60.0224  46.9047 0019365 345.4060  14.6460 15.25395593  1693
